OBJECT_NAME,OBJECT_ID,EPOCH,MEAN_MOTION,ECCENTRICITY,INCLINATION,RA_OF_ASC_NODE,ARG_OF_PERICENTER,MEAN_ANOMALY,EPHEMERIS_TYPE,CLASSIFICATION_TYPE,NORAD_CAT_ID,ELEMENT_SET_NO,REV_AT_EPOCH,BSTAR,MEAN_MOTION_DOT,MEAN_MOTION_DDOT
SL-12 R/B(2),1985-042D,2026-07-14T04:15:06.987744,14.22010795,.003729,71.1066,180.4923,287.6637,147.4167,0,U,15772,999,13237,.76013E-5,-.31E-6,0
SL-14 R/B,1985-069B,2026-07-14T03:52:43.814208,14.86534776,.0019984,82.5263,265.9984,130.4954,229.8008,0,U,15945,999,19162,.22503E-4,.225E-5,0
SL-16 R/B,1985-097B,2026-07-14T04:04:52.961952,14.16612495,.0005587,71.0008,234.2711,53.7926,3.6701,0,U,16182,999,10514,.6646E-4,.85E-6,0
SL-14 R/B,1986-006B,2026-07-13T23:15:07.356960,14.86967714,.0075375,82.5282,140.9114,212.9707,146.6799,0,U,16496,999,16797,.21549E-4,.229E-5,0
COSMOS 1743,1986-034A,2026-07-13T18:07:37.644384,15.69503231,.0005351,82.5287,300.4321,180.7923,179.3331,0,U,16719,999,19995,.31835E-3,.37584E-3,0
SL-14 R/B,1986-046B,2026-07-13T19:46:23.009088,14.85689957,.0023409,82.4837,321.0061,167.4760,192.7043,0,U,16792,999,14513,.25918E-4,.25E-5,0
SL-14 R/B,1986-055B,2026-07-13T23:02:10.862880,14.85739807,.0017309,82.5202,7.9578,274.7306,199.6609,0,U,16882,999,13811,.22243E-4,.218E-5,0
AJISAI (EGS),1986-061A,2026-07-14T04:55:26.079744,12.44516665,.0011092,50.0105,64.3158,249.3523,208.2393,0,U,16908,999,48375,-.93245E-4,-.111E-5,0
SL-14 R/B,1987-024B,2026-07-13T21:05:24.184032,14.86231187,.0017699,82.5296,334.1611,198.2392,161.8192,0,U,17567,999,10687,.24408E-4,.239E-5,0
COSMOS 1833,1987-027A,2026-07-14T01:53:45.307968,14.13066318,.0024167,70.9212,60.3465,10.5041,349.6579,0,U,17589,999,2817,.79821E-4,.101E-5,0
SL-16 R/B,1987-027B,2026-07-13T21:31:33.299616,14.17173222,.000714,71.0031,10.5418,282.9811,77.0516,0,U,17590,999,3322,.3281E-4,.18E-6,0
SL-14 R/B,1987-038B,2026-07-14T00:08:44.225952,14.85460995,.0020799,82.5012,177.8099,105.8346,254.5165,0,U,17912,999,9798,.21275E-4,.209E-5,0
COSMOS 1844,1987-041A,2026-07-14T04:34:16.487040,14.14580460,.00314,70.8998,127.3489,196.7182,163.2908,0,U,17973,999,2147,.82432E-4,.111E-5,0
SL-14 R/B,1987-055B,2026-07-14T03:54:16.390944,14.85726657,.0019473,82.4972,229.7987,318.6989,41.2753,0,U,18153,999,8871,.20973E-4,.207E-5,0
COSMOS 1867,1987-060A,2026-07-13T16:19:42.652992,14.31518371,.0017119,65.0119,313.8622,282.0141,77.9025,0,U,18187,999,3797,.14833E-4,-.61E-6,0
SL-14 R/B,1988-001B,2026-07-14T03:59:56.832864,14.85626430,.0018088,82.5120,76.3905,175.1469,184.9926,0,U,18749,999,6080,.21777E-4,.213E-5,0
COSMOS 1933,1988-020A,2026-07-14T04:21:19.784736,15.18884973,.0005835,82.5142,125.7021,110.0197,250.1666,0,U,18958,999,6942,.7942E-4,.1688E-4,0
SL-3 R/B,1988-032B,2026-07-14T03:38:24.897120,15.21026787,.0026406,97.5269,178.1706,149.2388,211.0402,0,U,19046,999,7132,.10278E-3,.2229E-4,0
SL-16 R/B,1988-039B,2026-07-14T04:16:44.826240,14.19631366,.0020676,71.0124,161.0850,151.0255,209.2022,0,U,19120,999,97633,-.10572E-4,-.7E-6,0
COSMOS 1953,1988-050A,2026-07-14T00:38:35.526048,15.30328485,.0011621,82.5059,30.9589,43.6557,316.5601,0,U,19210,999,5709,.1648E-3,.4876E-4,0
SL-8 R/B,1988-053B,2026-07-14T04:30:30.815424,14.38977982,.0019669,74.0459,239.2860,25.1557,31.5252,0,U,19257,999,99479,.49432E-4,.126E-5,0
COSMOS 1975,1988-093A,2026-07-13T21:53:50.349984,15.29652509,.0012544,82.5194,350.8100,86.3486,273.9189,0,U,19573,999,3869,.13938E-3,.4046E-4,0
SL-14 R/B,1988-093B,2026-07-14T04:55:58.751904,14.85759758,.0020102,82.5316,283.2809,343.7156,44.0876,0,U,19574,999,1980,.21335E-4,.21E-5,0
SL-16 R/B,1988-102B,2026-07-14T04:47:12.386688,14.16166800,.0014373,70.9979,245.3024,187.0705,173.0218,0,U,19650,999,94480,-.56116E-4,-.159E-5,0
INTERCOSMOS 24,1989-080A,2026-07-14T00:27:02.045088,12.59691711,.1187246,82.6048,22.1804,359.6764,0.3439,0,U,20261,999,68270,.48155E-4,.178E-5,0
SL-14 R/B,1989-080C,2026-07-14T02:56:22.449984,12.50578365,.1228666,82.5934,92.0014,255.7465,90.4394,0,U,20262,999,67595,.21107E-4,.72E-6,0
DELTA 1 R/B,1989-089B,2026-07-14T02:50:40.388064,14.50747460,.0070642,97.0634,22.3669,83.3180,277.6051,0,U,20323,999,91406,.43339E-4,.141E-5,0
ARIANE 40 R/B,1990-005H,2026-07-14T03:28:50.198880,14.39940424,.0010206,98.2946,251.9209,177.0959,183.0291,0,U,20443,999,91100,.46468E-4,.104E-5,0
DELTA 2 R/B(1),1990-008B,2026-07-14T00:09:01.857600,15.73412541,.0059527,35.6003,55.6406,4.6810,355.4478,0,U,20453,999,94592,.50554E-3,.82144E-3,0
COSMOS 2058,1990-010A,2026-07-14T04:49:42.517056,15.12153403,.00079,82.4671,282.7128,254.1375,105.8985,0,U,20465,999,96135,.91993E-4,.1616E-4,0
SL-14 R/B,1990-010B,2026-07-13T22:37:22.431936,14.83662655,.0018333,82.5035,148.8186,241.7174,118.2191,0,U,20466,999,94720,.20471E-4,.193E-5,0
