SL-12 R/B(2)            
1 15772U 85042D   26195.17716421 -.00000031  00000+0  76013-5 0  9999
2 15772  71.1066 180.4923 0037290 287.6637 147.4167 14.22010795132379
SL-14 R/B               
1 15945U 85069B   26195.16161822  .00000225  00000+0  22503-4 0  9996
2 15945  82.5263 265.9984 0019984 130.4954 229.8008 14.86534776191621
SL-16 R/B               
1 16182U 85097B   26195.17005743  .00000085  00000+0  66460-4 0  9995
2 16182  71.0008 234.2711 0005587  53.7926   3.6701 14.16612495105140
SL-14 R/B               
1 16496U 86006B   26194.96883515  .00000229  00000+0  21549-4 0  9990
2 16496  82.5282 140.9114 0075375 212.9707 146.6799 14.86967714167975
COSMOS 1743             
1 16719U 86034A   26194.75529681  .00037584  00000+0  31835-3 0  9999
2 16719  82.5287 300.4321 0005351 180.7923 179.3331 15.69503231199950
SL-14 R/B               
1 16792U 86046B   26194.82387742  .00000250  00000+0  25918-4 0  9997
2 16792  82.4837 321.0061 0023409 167.4760 192.7043 14.85689957145133
SL-14 R/B               
1 16882U 86055B   26194.95984795  .00000218  00000+0  22243-4 0  9994
2 16882  82.5202   7.9578 0017309 274.7306 199.6609 14.85739807138117
AJISAI (EGS)            
1 16908U 86061A   26195.20516296 -.00000111  00000+0 -93245-4 0  9990
2 16908  50.0105  64.3158 0011092 249.3523 208.2393 12.44516665483759
SL-14 R/B               
1 17567U 87024B   26194.87875213  .00000239  00000+0  24408-4 0  9995
2 17567  82.5296 334.1611 0017699 198.2392 161.8192 14.86231187106876
COSMOS 1833             
1 17589U 87027A   26195.07899662  .00000101  00000+0  79821-4 0  9996
2 17589  70.9212  60.3465 0024167  10.5041 349.6579 14.13066318 28172
SL-16 R/B               
1 17590U 87027B   26194.89691319  .00000018  00000+0  32810-4 0  9990
2 17590  71.0031  10.5418 0007140 282.9811  77.0516 14.17173222 33224
SL-14 R/B               
1 17912U 87038B   26195.00606743  .00000209  00000+0  21275-4 0  9996
2 17912  82.5012 177.8099 0020799 105.8346 254.5165 14.85460995 97987
COSMOS 1844             
1 17973U 87041A   26195.19046860  .00000111  00000+0  82432-4 0  9999
2 17973  70.8998 127.3489 0031400 196.7182 163.2908 14.14580460 21472
SL-14 R/B               
1 18153U 87055B   26195.16268971  .00000207  00000+0  20973-4 0  9999
2 18153  82.4972 229.7987 0019473 318.6989  41.2753 14.85726657 88711
COSMOS 1867             
1 18187U 87060A   26194.68035478 -.00000061  00000+0  14833-4 0  9999
2 18187  65.0119 313.8622 0017119 282.0141  77.9025 14.31518371 37971
SL-14 R/B               
1 18749U 88001B   26195.16663001  .00000213  00000+0  21777-4 0  9995
2 18749  82.5120  76.3905 0018088 175.1469 184.9926 14.85626430 60809
COSMOS 1933             
1 18958U 88020A   26195.18147899  .00001688  00000+0  79420-4 0  9997
2 18958  82.5142 125.7021 0005835 110.0197 250.1666 15.18884973 69424
SL-3 R/B                
1 19046U 88032B   26195.15167705  .00002229  00000+0  10278-3 0  9991
2 19046  97.5269 178.1706 0026406 149.2388 211.0402 15.21026787 71325
SL-16 R/B               
1 19120U 88039B   26195.17829660 -.00000070  00000+0 -10572-4 0  9990
2 19120  71.0124 161.0850 0020676 151.0255 209.2022 14.19631366976336
COSMOS 1953             
1 19210U 88050A   26195.02680007  .00004876  00000+0  16480-3 0  9996
2 19210  82.5059  30.9589 0011621  43.6557 316.5601 15.30328485 57091
SL-8 R/B                
1 19257U 88053B   26195.18785666  .00000126  00000+0  49432-4 0  9992
2 19257  74.0459 239.2860 0019669  25.1557  31.5252 14.38977982994795
COSMOS 1975             
1 19573U 88093A   26194.91238831  .00004046  00000+0  13938-3 0  9990
2 19573  82.5194 350.8100 0012544  86.3486 273.9189 15.29652509 38693
SL-14 R/B               
1 19574U 88093B   26195.20554111  .00000210  00000+0  21335-4 0  9996
2 19574  82.5316 283.2809 0020102 343.7156  44.0876 14.85759758 19805
SL-16 R/B               
1 19650U 88102B   26195.19944892 -.00000159  00000+0 -56116-4 0  9998
2 19650  70.9979 245.3024 0014373 187.0705 173.0218 14.16166800944800
INTERCOSMOS 24          
1 20261U 89080A   26195.01877367  .00000178  00000+0  48155-4 0  9990
2 20261  82.6048  22.1804 1187246 359.6764   0.3439 12.59691711682701
SL-14 R/B               
1 20262U 89080C   26195.12248206  .00000072  00000+0  21107-4 0  9998
2 20262  82.5934  92.0014 1228666 255.7465  90.4394 12.50578365675959
DELTA 1 R/B             
1 20323U 89089B   26195.11852301  .00000141  00000+0  43339-4 0  9999
2 20323  97.0634  22.3669 0070642  83.3180 277.6051 14.50747460914067
ARIANE 40 R/B           
1 20443U 90005H   26195.14502545  .00000104  00000+0  46468-4 0  9992
2 20443  98.2946 251.9209 0010206 177.0959 183.0291 14.39940424911003
DELTA 2 R/B(1)          
1 20453U 90008B   26195.00627150  .00082144  00000+0  50554-3 0  9995
2 20453  35.6003  55.6406 0059527   4.6810 355.4478 15.73412541945924
COSMOS 2058             
1 20465U 90010A   26195.20118654  .00001616  00000+0  91993-4 0  9995
2 20465  82.4671 282.7128 0007900 254.1375 105.8985 15.12153403961355
SL-14 R/B               
1 20466U 90010B   26194.94262074  .00000193  00000+0  20471-4 0  9994
2 20466  82.5035 148.8186 0018333 241.7174 118.2191 14.83662655947204
